[{"OBJECT_NAME":"SL-14 R/B","OBJECT_ID":"1986-006B","EPOCH":"2026-04-18T07:03:03.544992","MEAN_MOTION":14.86882026,"ECCENTRICITY":0.00774772,"INCLINATION":82.5284,"RA_OF_ASC_NODE":222.4624,"ARG_OF_PERICENTER":140.5848,"MEAN_ANOMALY":220.1043,"EPHEMERIS_TYPE":0,"CLASSIFICATION_TYPE":"U","NORAD_CAT_ID":16496,"ELEMENT_SET_NO":999,"REV_AT_EPOCH":15509,"BSTAR":5.3041009e-5,"MEAN_MOTION_DOT":5.28e-6,"MEAN_MOTION_DDOT":0},{"OBJECT_NAME":"COSMOS 1743","OBJECT_ID":"1986-034A","EPOCH":"2026-04-18T05:05:43.304928","MEAN_MOTION":15.61994779,"ECCENTRICITY":0.00072727,"INCLINATION":82.5324,"RA_OF_ASC_NODE":32.2434,"ARG_OF_PERICENTER":120.3666,"MEAN_ANOMALY":239.8311,"EPHEMERIS_TYPE":0,"CLASSIFICATION_TYPE":"U","NORAD_CAT_ID":16719,"ELEMENT_SET_NO":999,"REV_AT_EPOCH":18641,"BSTAR":0.00037205032,"MEAN_MOTION_DOT":0.00032577,"MEAN_MOTION_DDOT":0},{"OBJECT_NAME":"SL-14 R/B","OBJECT_ID":"1986-046B","EPOCH":"2026-04-18T06:38:41.064288","MEAN_MOTION":14.85628751,"ECCENTRICITY":0.00246835,"INCLINATION":82.4837,"RA_OF_ASC_NODE":42.7751,"ARG_OF_PERICENTER":96.6781,"MEAN_ANOMALY":263.7246,"EPHEMERIS_TYPE":0,"CLASSIFICATION_TYPE":"U","NORAD_CAT_ID":16792,"ELEMENT_SET_NO":999,"REV_AT_EPOCH":13228,"BSTAR":3.2520773e-5,"MEAN_MOTION_DOT":3.08e-6,"MEAN_MOTION_DDOT":0},{"OBJECT_NAME":"SL-14 R/B","OBJECT_ID":"1986-055B","EPOCH":"2026-04-18T04:39:41.190336","MEAN_MOTION":14.85677379,"ECCENTRICITY":0.00183525,"INCLINATION":82.5177,"RA_OF_ASC_NODE":89.529,"ARG_OF_PERICENTER":196.8125,"MEAN_ANOMALY":173.9588,"EPHEMERIS_TYPE":0,"CLASSIFICATION_TYPE":"U","NORAD_CAT_ID":16882,"ELEMENT_SET_NO":999,"REV_AT_EPOCH":12523,"BSTAR":2.9425551e-5,"MEAN_MOTION_DOT":2.8e-6,"MEAN_MOTION_DDOT":0},{"OBJECT_NAME":"AJISAI (EGS)","OBJECT_ID":"1986-061A","EPOCH":"2026-04-18T05:37:21.175968","MEAN_MOTION":12.44515824,"ECCENTRICITY":0.0011405,"INCLINATION":50.0112,"RA_OF_ASC_NODE":331.751,"ARG_OF_PERICENTER":28.5887,"MEAN_ANOMALY":75.5582,"EPHEMERIS_TYPE":0,"CLASSIFICATION_TYPE":"U","NORAD_CAT_ID":16908,"ELEMENT_SET_NO":999,"REV_AT_EPOCH":47292,"BSTAR":8.3103001e-5,"MEAN_MOTION_DOT":-8.6e-7,"MEAN_MOTION_DDOT":0},{"OBJECT_NAME":"SL-14 R/B","OBJECT_ID":"1987-024B","EPOCH":"2026-04-18T02:15:11.236320","MEAN_MOTION":14.86169723,"ECCENTRICITY":0.00194795,"INCLINATION":82.5287,"RA_OF_ASC_NODE":55.7221,"ARG_OF_PERICENTER":127.192,"MEAN_ANOMALY":233.1079,"EPHEMERIS_TYPE":0,"CLASSIFICATION_TYPE":"U","NORAD_CAT_ID":17567,"ELEMENT_SET_NO":999,"REV_AT_EPOCH":9398,"BSTAR":3.1411436e-5,"MEAN_MOTION_DOT":3.01e-6,"MEAN_MOTION_DDOT":0},{"OBJECT_NAME":"COSMOS 1833","OBJECT_ID":"1987-027A","EPOCH":"2026-04-18T06:58:04.785888","MEAN_MOTION":14.13036914,"ECCENTRICITY":0.00225149,"INCLINATION":70.9161,"RA_OF_ASC_NODE":242.7766,"ARG_OF_PERICENTER":153.7793,"MEAN_ANOMALY":206.4473,"EPHEMERIS_TYPE":0,"CLASSIFICATION_TYPE":"U","NORAD_CAT_ID":17589,"ELEMENT_SET_NO":999,"REV_AT_EPOCH":1591,"BSTAR":-0.00012941483,"MEAN_MOTION_DOT":-2.9e-6,"MEAN_MOTION_DDOT":0},{"OBJECT_NAME":"SL-16 R/B","OBJECT_ID":"1987-027B","EPOCH":"2026-04-18T05:16:08.377824","MEAN_MOTION":14.1716859,"ECCENTRICITY":0.00032395,"INCLINATION":71.0031,"RA_OF_ASC_NODE":193.1944,"ARG_OF_PERICENTER":41.953,"MEAN_ANOMALY":318.1841,"EPHEMERIS_TYPE":0,"CLASSIFICATION_TYPE":"U","NORAD_CAT_ID":17590,"ELEMENT_SET_NO":999,"REV_AT_EPOCH":2094,"BSTAR":-1.6643298e-5,"MEAN_MOTION_DOT":-8.1e-7,"MEAN_MOTION_DDOT":0},{"OBJECT_NAME":"SL-14 R/B","OBJECT_ID":"1987-038B","EPOCH":"2026-04-18T04:14:00.155616","MEAN_MOTION":14.85405108,"ECCENTRICITY":0.00201018,"INCLINATION":82.499,"RA_OF_ASC_NODE":259.5969,"ARG_OF_PERICENTER":37.8726,"MEAN_ANOMALY":322.3899,"EPHEMERIS_TYPE":0,"CLASSIFICATION_TYPE":"U","NORAD_CAT_ID":17912,"ELEMENT_SET_NO":999,"REV_AT_EPOCH":8509,"BSTAR":2.9594786e-5,"MEAN_MOTION_DOT":2.8e-6,"MEAN_MOTION_DDOT":0},{"OBJECT_NAME":"COSMOS 1844","OBJECT_ID":"1987-041A","EPOCH":"2026-04-18T00:00:19.278432","MEAN_MOTION":14.14564028,"ECCENTRICITY":0.00325402,"INCLINATION":70.8995,"RA_OF_ASC_NODE":311.2616,"ARG_OF_PERICENTER":320.0625,"MEAN_ANOMALY":39.8103,"EPHEMERIS_TYPE":0,"CLASSIFICATION_TYPE":"U","NORAD_CAT_ID":17973,"ELEMENT_SET_NO":999,"REV_AT_EPOCH":914,"BSTAR":-8.3187965e-5,"MEAN_MOTION_DOT":-2.09e-6,"MEAN_MOTION_DDOT":0},{"OBJECT_NAME":"SL-14 R/B","OBJECT_ID":"1987-055B","EPOCH":"2026-04-18T06:44:40.794144","MEAN_MOTION":14.8566428,"ECCENTRICITY":0.00192826,"INCLINATION":82.4973,"RA_OF_ASC_NODE":311.7141,"ARG_OF_PERICENTER":240.7085,"MEAN_ANOMALY":119.2205,"EPHEMERIS_TYPE":0,"CLASSIFICATION_TYPE":"U","NORAD_CAT_ID":18153,"ELEMENT_SET_NO":999,"REV_AT_EPOCH":7581,"BSTAR":2.675919e-5,"MEAN_MOTION_DOT":2.57e-6,"MEAN_MOTION_DDOT":0},{"OBJECT_NAME":"COSMOS 1867","OBJECT_ID":"1987-060A","EPOCH":"2026-04-17T15:12:15.764256","MEAN_MOTION":14.3150881,"ECCENTRICITY":0.00152218,"INCLINATION":65.0108,"RA_OF_ASC_NODE":197.6406,"ARG_OF_PERICENTER":280.7014,"MEAN_ANOMALY":79.2356,"EPHEMERIS_TYPE":0,"CLASSIFICATION_TYPE":"U","NORAD_CAT_ID":18187,"ELEMENT_SET_NO":999,"REV_AT_EPOCH":2551,"BSTAR":1.2867351e-5,"MEAN_MOTION_DOT":-6.6e-7,"MEAN_MOTION_DDOT":0},{"OBJECT_NAME":"SL-14 R/B","OBJECT_ID":"1988-001B","EPOCH":"2026-04-18T03:27:56.342304","MEAN_MOTION":14.85566205,"ECCENTRICITY":0.00195987,"INCLINATION":82.5136,"RA_OF_ASC_NODE":158.2615,"ARG_OF_PERICENTER":106.7737,"MEAN_ANOMALY":253.5631,"EPHEMERIS_TYPE":0,"CLASSIFICATION_TYPE":"U","NORAD_CAT_ID":18749,"ELEMENT_SET_NO":999,"REV_AT_EPOCH":4788,"BSTAR":2.8797395e-5,"MEAN_MOTION_DOT":2.74e-6,"MEAN_MOTION_DDOT":0},{"OBJECT_NAME":"COSMOS 1933","OBJECT_ID":"1988-020A","EPOCH":"2026-04-18T06:29:29.324256","MEAN_MOTION":15.18345056,"ECCENTRICITY":0.00053615,"INCLINATION":82.5149,"RA_OF_ASC_NODE":211.7439,"ARG_OF_PERICENTER":72.0822,"MEAN_ANOMALY":288.0996,"EPHEMERIS_TYPE":0,"CLASSIFICATION_TYPE":"U","NORAD_CAT_ID":18958,"ELEMENT_SET_NO":999,"REV_AT_EPOCH":5623,"BSTAR":0.00011583307,"MEAN_MOTION_DOT":2.409e-5,"MEAN_MOTION_DDOT":0},{"OBJECT_NAME":"SL-3 R/B","OBJECT_ID":"1988-032B","EPOCH":"2026-04-18T05:28:26.587200","MEAN_MOTION":15.20323758,"ECCENTRICITY":0.00276879,"INCLINATION":97.5234,"RA_OF_ASC_NODE":91.3654,"ARG_OF_PERICENTER":95.8025,"MEAN_ANOMALY":264.6367,"EPHEMERIS_TYPE":0,"CLASSIFICATION_TYPE":"U","NORAD_CAT_ID":19046,"ELEMENT_SET_NO":999,"REV_AT_EPOCH":5811,"BSTAR":0.00015482053,"MEAN_MOTION_DOT":3.328e-5,"MEAN_MOTION_DDOT":0},{"OBJECT_NAME":"SL-16 R/B","OBJECT_ID":"1988-039B","EPOCH":"2026-04-18T02:05:16.870848","MEAN_MOTION":14.19622756,"ECCENTRICITY":0.00240683,"INCLINATION":71.0162,"RA_OF_ASC_NODE":345.2441,"ARG_OF_PERICENTER":278.5464,"MEAN_ANOMALY":81.2934,"EPHEMERIS_TYPE":0,"CLASSIFICATION_TYPE":"U","NORAD_CAT_ID":19120,"ELEMENT_SET_NO":999,"REV_AT_EPOCH":96397,"BSTAR":-3.2739542e-5,"MEAN_MOTION_DOT":-1.18e-6,"MEAN_MOTION_DDOT":0},{"OBJECT_NAME":"COSMOS 1953","OBJECT_ID":"1988-050A","EPOCH":"2026-04-18T06:56:10.678272","MEAN_MOTION":15.29114022,"ECCENTRICITY":0.00103242,"INCLINATION":82.5045,"RA_OF_ASC_NODE":118.3933,"ARG_OF_PERICENTER":355.2948,"MEAN_ANOMALY":4.8193,"EPHEMERIS_TYPE":0,"CLASSIFICATION_TYPE":"U","NORAD_CAT_ID":19210,"ELEMENT_SET_NO":999,"REV_AT_EPOCH":4383,"BSTAR":0.00019768716,"MEAN_MOTION_DOT":5.626e-5,"MEAN_MOTION_DDOT":0}]
