SL-14 R/B               
1 16496U 86006B   26108.29379103  .00000528  00000+0  53041-4 0  9998
2 16496  82.5284 222.4624 0077477 140.5848 220.1043 14.86882026155098
COSMOS 1743             
1 16719U 86034A   26108.21230677  .00032577  00000+0  37205-3 0  9993
2 16719  82.5324  32.2434 0007272 120.3666 239.8311 15.61994779186415
SL-14 R/B               
1 16792U 86046B   26108.27686417  .00000308  00000+0  32521-4 0  9994
2 16792  82.4837  42.7751 0024683  96.6781 263.7246 14.85628751132288
SL-14 R/B               
1 16882U 86055B   26108.19422674  .00000280  00000+0  29426-4 0  9997
2 16882  82.5177  89.5290 0018352 196.8125 173.9588 14.85677379125232
AJISAI (EGS)            
1 16908U 86061A   26108.23427287 -.00000086  00000+0  83103-4 0  9990
2 16908  50.0112 331.7510 0011405  28.5887  75.5582 12.44515824472926
SL-14 R/B               
1 17567U 87024B   26108.09388005  .00000301  00000+0  31411-4 0  9994
2 17567  82.5287  55.7221 0019479 127.1920 233.1079 14.86169723 93985
COSMOS 1833             
1 17589U 87027A   26108.29033317 -.00000290  00000+0 -12941-3 0  9991
2 17589  70.9161 242.7766 0022514 153.7793 206.4473 14.13036914 15913
SL-16 R/B               
1 17590U 87027B   26108.21954141 -.00000081  00000+0 -16643-4 0  9994
2 17590  71.0031 193.1944 0003239  41.9530 318.1841 14.17168590 20949
SL-14 R/B               
1 17912U 87038B   26108.17639069  .00000280  00000+0  29595-4 0  9997
2 17912  82.4990 259.5969 0020101  37.8726 322.3899 14.85405108 85090
COSMOS 1844             
1 17973U 87041A   26108.00022313 -.00000209  00000+0 -83188-4 0  9999
2 17973  70.8995 311.2616 0032540 320.0625  39.8103 14.14564028  9142
SL-14 R/B               
1 18153U 87055B   26108.28102771  .00000257  00000+0  26759-4 0  9994
2 18153  82.4973 311.7141 0019282 240.7085 119.2205 14.85664280 75814
COSMOS 1867             
1 18187U 87060A   26107.63351579 -.00000066  00000+0  12867-4 0  9991
2 18187  65.0108 197.6406 0015221 280.7014  79.2356 14.31508810 25519
SL-14 R/B               
1 18749U 88001B   26108.14440211  .00000274  00000+0  28797-4 0  9999
2 18749  82.5136 158.2615 0019598 106.7737 253.5631 14.85566205 47881
COSMOS 1933             
1 18958U 88020A   26108.27047829  .00002409  00000+0  11583-3 0  9990
2 18958  82.5149 211.7439 0005361  72.0822 288.0996 15.18345056 56231
SL-3 R/B                
1 19046U 88032B   26108.22808550  .00003328  00000+0  15482-3 0  9996
2 19046  97.5234  91.3654 0027687  95.8025 264.6367 15.20323758 58114
SL-16 R/B               
1 19120U 88039B   26108.08700082 -.00000118  00000+0 -32740-4 0  9994
2 19120  71.0162 345.2441 0024068 278.5464  81.2934 14.19622756963975
COSMOS 1953             
1 19210U 88050A   26108.28901248  .00005626  00000+0  19769-3 0  9998
2 19210  82.5045 118.3933 0010324 355.2948   4.8193 15.29114022 43833
